#dP2024 10 26 18  0  0.00000000      96 __u+U IGS20 EXT  IAC
## 2337 583200.00000000   900.00000000 60609 0.7500000000000
+   52   G02G03G04G05G06G07G08G09G10G11G12G13G14G15G16G17G18
+        G19G20G21G22G23G24G25G26G27G28G29G30G31G32R01R02R03
+        R04R05R07R08R09R11R12R14R15R16R17R18R19R20R21R22R24
+        R26  0  0  0  0  0  0  0  0  0  0  0  0  0  0  0  0
+          0  0  0  0  0  0  0  0  0  0  0  0  0  0  0  0  0
++         8  7  8  7  7  7  8  7  7  7 10  7  8  7  7  8  6
++         7  7  8  9  8  6  6  6  7  7  6  8  8  7  8  8  8
++         8  8  8  8  9  7  9  7  9  8  9  7  9  8  7  8  9
++         9  0  0  0  0  0  0  0  0  0  0  0  0  0  0  0  0
++         0  0  0  0  0  0  0  0  0  0  0  0  0  0  0  0  0
%c M  cc GPS ccc cccc cccc cccc cccc ccccc ccccc ccccc ccccc
%c cc cc ccc ccc cccc cccc cccc cccc ccccc ccccc ccccc ccccc
%f  0.0000000  0.000000000  0.00000000000  0.000000000000000
%f  0.0000000  0.000000000  0.00000000000  0.000000000000000
%i    0    0    0    0      0      0      0      0         0
%i    0    0    0    0      0      0      0      0         0
/* IAC                                ULTRA-RAPID PREDICTION
/* S/V CLOCKS ARE ALIGNED TO GNSS TIME                      
/* G:C1WC2W R:C1PC2P E:C1XC5X C:C2IC6I J:C1CC2S             
/* PCV:IGS20_2317 OL/AL:FES2004  NONE     YN ORB:CoN CLK:CoN
*  2024 10 27  9 30  0.00000000
PG02   6051.713101  13913.796347 -21359.663741   -328.044449
PG03  12263.440693  23196.627338  -4646.901496    582.687473
PG04   3099.726711  19979.538670  17159.588689    469.009292
PG05   -402.299742 -19883.525287  17393.326094   -191.105724
PG06  25451.288877  -5454.256524   5647.245819    -68.935144
PG07  21806.847159   8030.455720  13794.636610    -24.280036
PG08  -4709.863430  24831.292662  -7506.534786    396.589386
PG09  11160.380608  11421.274676  21118.388890    416.811461
PG10 -17474.320107  -2263.716836 -19763.918864   -173.356881
PG11  15826.688654 -12539.030735  17256.284695   -746.826488
PG12  -7840.500437 -24145.220143  -8166.177114   -547.990376
PG13  13461.392175 -22692.967282  -1765.715673    683.378076
PG14  19125.693977   5875.232875 -17533.490356    526.661892
PG15   1030.253583 -25322.562383  -8197.790043    220.606528
PG16  -5902.102702  16728.064043  19278.222402   -144.078463
PG17  17672.749363  -5422.210617 -18721.397455    581.018155
PG18 -22833.448888  -6693.087493  12064.588255   -659.204801
PG19  18652.803363 -13463.885742 -13037.584555    555.542412
PG20   9042.353710 -12572.228519  21662.019419    369.285049
PG21   -222.331485  15165.323277 -21313.758400     98.857438
PG22  15546.636693  -2342.284801 -20961.104337    -74.567061
PG23 -19626.120224 -14473.398926 -10764.226424    350.482907
PG24  -3975.684053 -15533.978890 -21641.632360   -483.235152
PG25 -17367.736317 -19966.456593   3227.857034    499.359339
PG26 -14389.512495   7168.900724  21009.042396     45.322657
PG27 -12506.137647  22986.353438   2584.446202    -34.711854
PG28 -25846.787083   5242.029225   3159.820552   -459.618468
PG29  -8971.705143 -13460.590792  21001.194318   -568.315201
PG30  26443.221538    548.538195   3849.640110   -294.180799
PG31 -20404.177375  10713.741279  13283.033551   -222.752237
PG32 -17468.586612   8195.926699 -17944.034801   -581.710566
PR01  -9980.949041  -8445.061666 -21906.383956    102.433087
PR02 -10605.433894  10070.746369 -20839.303191    -25.377037
PR03  -5503.455018  23593.374414  -7835.094928    110.201138
PR04   2075.505615  23767.294352   9019.243046    261.177972
PR05   8733.190397  11356.537156  21101.630219    139.786770
PR07   5380.536729 -23831.911560   7469.535121     93.780476
PR08  -2394.330190 -23711.009720  -9101.005615     -6.368228
PR09  17916.638061    717.466015 -18161.745286    217.089621
PR11 -11315.567530 -16554.425157 -15745.531906      8.288114
PR12 -21738.032351 -13052.268515   2874.055919     46.529139
PR14  -3617.471152  10883.063201  22796.568483     27.136975
PR15  12599.022752  16898.429862  14388.806821     74.631970
PR16  21741.921617  13110.263581  -2646.172172     30.274553
PR17 -14924.801904  14512.835955 -14761.042586    134.462959
PR18    779.205227  11074.233390 -22939.605596    168.897870
PR19  14704.188982   3800.271570 -20483.053828   -296.350991
PR20  23889.553561  -8471.293075  -2991.387989   -121.026064
PR21  15713.535591 -14282.423189  14113.469030   -146.235673
PR22  -1928.524298 -11025.480059  22952.514018      8.612181
PR24 -23447.923955   9763.419118   2518.044722    -77.655227
PR26  -1781.121663 -24281.134546  -7569.690538   -513.034571
*  2024 10 27  9 45  0.00000000
PG02   3551.357791  14431.860660 -21541.992215   -328.036935
PG03  11734.847142  22756.614158  -7437.411987    582.697645
PG04   2154.819451  21585.629692  15237.763692    469.015303
PG05   1041.635152 -18334.588976  18985.142526   -191.106791
PG06  25937.149741  -5342.123650   2794.851182    -68.960565
PG07  20237.094191   8385.832946  15859.181025    -24.277425
PG08  -5245.338332  25373.181175  -4764.273187    396.599329
PG09  10199.917310  13611.713268  20287.747091    416.826492
PG10 -18724.761689  -4081.285286 -18318.954581   -173.369293
PG11  17694.271709 -12509.819470  15348.952570   -746.828666
PG12  -7090.089379 -23386.450937 -10739.798531   -547.992745
PG13  13673.831842 -22576.788141   1126.196622    683.379654
PG14  20089.345645   7532.382258 -15756.432061    526.669432
PG15   1511.345245 -25954.840836  -5530.358961    220.610580
PG16  -7246.724509  14796.683832  20388.570996   -144.069537
PG17  16739.823936  -3328.152771 -19980.750641    581.005915
PG18 -21358.875647  -6998.288432  14357.553130   -659.205679
PG19  18047.340573 -11957.838620 -15237.584301    555.546547
PG20  10849.356567 -10891.402132  21729.741039    369.284732
PG21  -2693.223145  15596.456210 -20741.300017     98.856671
PG22  16748.751198   -215.856856 -20137.403392    -74.569921
PG23 -20167.675982 -15419.917933  -8159.564849    350.490168
PG24  -1640.759214 -16024.491738 -21548.769651   -483.233730
PG25 -17307.365040 -20323.667629    419.400979    499.359184
PG26 -15952.015878   5329.371817  20459.493324     45.313886
PG27 -12582.459270  22416.244002   5413.488284    -34.711948
PG28 -26082.272122   5022.182877    311.873991   -459.629658
PG29  -7806.236079 -15510.093897  20021.547796   -568.312724
PG30  25906.050046    909.765473   6555.359568   -294.173931
PG31 -21826.826046  10641.119906  10947.529303   -222.751687
PG32 -16758.068464   6126.830749 -19390.542489   -581.706268
PR01  -9997.596494 -11073.293254 -20693.747792    102.434292
PR02 -10399.021850   7420.759630 -22025.709572    -25.377101
PR03  -5306.827069  22443.782841 -10784.173677    110.201850
PR04   2194.772273  24697.852428   5964.282313    261.179585
PR05   8672.202055  13868.312798  19567.031372    139.787313
PR07   5174.255613 -22741.615282  10433.881409     93.781236
PR08  -2508.456656 -24659.911344  -6062.635865     -6.368124
PR09  19767.357659   1734.077340 -16060.325552    217.091665
PR11  -9601.407565 -15370.978468 -17932.145952      8.287258
PR12 -21940.497059 -13020.300854   -325.930792     46.529600
PR14  -6012.138232   9396.422590  22949.909446     27.137032
PR15  11029.360243  15793.865395  16742.113537     74.631838
PR16  21935.028525  13045.646805    563.841608     30.274864
PR17 -16334.103679  15407.063411 -12135.544209    134.466045
PR18  -1707.164728  12353.869996 -22222.153899    168.899530
PR19  12287.365765   4806.235413 -21820.962282   -296.352141
PR20  23283.255084  -8433.041536  -6170.439918   -121.026544
PR21  17050.626700 -15134.253019  11411.206295   -146.238526
PR22    589.168041 -12230.490585  22408.779591      8.601946
PR24 -22932.626801   9667.054965   5678.402261    -77.656551
PR26  -1910.570081 -25031.815091  -4459.437877   -513.000904
EOF
